stk.v.9.0

# WrittenBy    STK_v9.2.1

BEGIN Ephemeris

NumberOfEphemerisPoints 91

ScenarioEpoch            19 May 2020 04:00:00.000

# Epoch in JDate format: 2458988.66666666666667
# Epoch in YYDDD format:   20140.16666666666667


InterpolationMethod     Lagrange

InterpolationSamplesM1      5

CentralBody             Earth

CoordinateSystem        ICRF 

# Time of first point: 19 May 2020 04:00:00.000000000 UTCG = 2458988.66666666666667 JDate = 20140.16666666666667 YYDDD

EphemerisTimePosVel

0.00000000000000e+000 2.36956240971987e+006 3.91800790891819e+006 -5.19937210659769e+006 -7.12765172449648e+003 1.56126047014030e+003 -2.07186262210034e+003
6.00000000000000e+001 1.93710019383178e+006 4.00316592283402e+006 -5.31238060798418e+006 -7.28257143850734e+003 1.27631918320658e+003 -1.69373276280908e+003
1.20000000000000e+002 1.49628220200661e+006 4.07105608576484e+006 -5.40247389714049e+006 -7.40607742627954e+003 9.85872431375875e+002 -1.30829690483568e+003
1.80000000000000e+002 1.04900992410041e+006 4.12138555018960e+006 -5.46926335228029e+006 -7.49763693872553e+003 6.91173070844112e+002 -9.17217644507154e+002
2.40000000000000e+002 5.97212690846291e+005 4.15393721751468e+006 -5.51246087383915e+006 -7.55685502943350e+003 3.93492301641748e+002 -5.22181921241177e+002
3.00000000000000e+002 1.42839351592399e+005 4.16857067453926e+006 -5.53188012720603e+006 -7.58347625828789e+003 9.41141842506065e+001 -1.24893740850795e+002
3.60000000000000e+002 -3.12150132154538e+005 4.16522279913446e+006 -5.52743734648665e+006 -7.57738579332274e+003 -2.05669899253493e+002 2.72933174767540e+002
4.20000000000000e+002 -7.65793141118540e+005 4.14390803252373e+006 -5.49915169583183e+006 -7.53860990605503e+003 -5.04566815640147e+002 6.69582779856759e+002
4.80000000000000e+002 -1.21613286410812e+006 4.10471831698993e+006 -5.44714518677193e+006 -7.46731585816114e+003 -8.01287258517483e+002 1.06334410704604e+003
5.40000000000000e+002 -1.66122673881657e+006 4.04782269927782e+006 -5.37164215191418e+006 -7.36381117998555e+003 -1.09455130981800e+003 1.45251864769182e+003
6.00000000000000e+002 -2.09915483115896e+006 3.97346660140269e+006 -5.27296827727309e+006 -7.22854234399364e+003 -1.38309396078746e+003 1.83542767847746e+003
6.60000000000000e+002 -2.52802811700129e+006 3.88197076201059e+006 -5.15154919740799e+006 -7.06209283889107e+003 -1.66567056866164e+003 2.21041950266795e+003
7.20000000000000e+002 -2.94599663055794e+006 3.77372985285652e+006 -5.00790865942759e+006 -6.86518065271682e+003 -1.94106222549352e+003 2.57587657478416e+003
7.80000000000000e+002 -3.35125744430912e+006 3.64921077636865e+006 -4.84266626378141e+006 -6.63865517576685e+003 -2.20808101597197e+003 2.93022247796394e+003
8.40000000000000e+002 -3.74206244601647e+006 3.50895065164199e+006 -4.65653479158306e+006 -6.38349353670774e+003 -2.46557514155229e+003 3.27192872391298e+003
9.00000000000000e+002 -4.11672587929024e+006 3.35355449754899e+006 -4.45031712999422e+006 -6.10079638768465e+003 -2.71243388879522e+003 3.59952134611340e+003
9.60000000000000e+002 -4.47363161518148e+006 3.18369262296124e+006 -4.22490280893182e+006 -5.79178315660472e+003 -2.94759242048343e+003 3.91158725785011e+003
1.02000000000000e+003 -4.81124012343291e+006 3.00009773533954e+006 -3.98126416403745e+006 -5.45778678707547e+003 -3.17003636884870e+003 4.20678034762904e+003
1.08000000000000e+003 -5.12809511331763e+006 2.80356178016457e+006 -3.72045214246029e+006 -5.10024798868768e+003 -3.37880621109658e+003 4.48382728569459e+003
1.14000000000000e+003 -5.42282981541996e+006 2.59493252484158e+006 -3.44359176954539e+006 -4.72070902244452e+003 -3.57300140835468e+003 4.74153301659951e+003
1.20000000000000e+003 -5.69417287726184e+006 2.37510990181440e+006 -3.15187729598216e+006 -4.32080704814360e+003 -3.75178429019094e+003 4.97878591413469e+003
1.26000000000000e+003 -5.94095384734365e+006 2.14504212666309e+006 -2.84656704634589e+006 -3.90226706240859e+003 -3.91438366794573e+003 5.19456257638289e+003
1.32000000000000e+003 -6.16210822394363e+006 1.90572160792988e+006 -2.52897799125347e+006 -3.46689445783232e+003 -4.06009816129173e+003 5.38793224021274e+003
1.38000000000000e+003 -6.35668204689789e+006 1.65818066631664e+006 -2.20048006654657e+006 -3.01656723532798e+003 -4.18829922367206e+003 5.55806079617079e+003
1.44000000000000e+003 -6.52383601255399e+006 1.40348708171928e+006 -1.86249026400671e+006 -2.55322790328085e+003 -4.29843385356641e+003 5.70421438645317e+003
1.50000000000000e+003 -6.66284909414808e+006 1.14273948730727e+006 -1.51646651909227e+006 -2.07887509844380e+003 -4.39002697989006e+003 5.82576257043699e+003
1.56000000000000e+003 -6.77312165198893e+006 8.77062630515955e+005 -1.16390142206297e+006 -1.59555496472047e+003 -4.46268351123608e+003 5.92218104411663e+003
1.62000000000000e+003 -6.85417802003289e+006 6.07602521393812e+005 -8.06315779619162e+005 -1.10535232702397e+003 -4.51609004012136e+003 5.99305390171457e+003
1.68000000000000e+003 -6.90566855769257e+006 3.35521489232305e+005 -4.45252054828098e+005 -6.10381698283144e+002 -4.55001619488503e+003 6.03807542971118e+003
1.74000000000000e+003 -6.92737115802844e+006 6.19931688019584e+004 -8.22677136344777e+004 -1.12778158388222e+002 -4.56431563340780e+003 6.05705142555490e+003
1.80000000000000e+003 -6.91919220581801e+006 -2.11802562178336e+005 2.81071493344697e+005 3.85311855580206e+002 -4.55892667436585e+003 6.04990003536436e+003
1.86000000000000e+003 -6.88116698136959e+006 -4.84684672501271e+005 6.43198284761597e+005 8.81739808111967e+002 -4.53387256329623e+003 6.01665210700911e+003
1.92000000000000e+003 -6.81345950833899e+006 -7.55476071906695e+005 1.00255060908191e+006 1.37436433307976e+003 -4.48926137232605e+003 5.95745105704582e+003
1.98000000000000e+003 -6.71636184620547e+006 -1.02300868851773e+006 1.35757838257014e+006 1.86106047062615e+003 -4.42528553399815e+003 5.87255225208396e+003
2.04000000000000e+003 -6.59029283045900e+006 -1.28612850737563e+006 1.70675017565121e+006 2.33972883328128e+003 -4.34222101120395e+003 5.76232190724954e+003
2.10000000000000e+003 -6.43579626593299e+006 -1.54370054833947e+006 2.04855981880648e+006 2.80830466177289e+003 -4.24042610680409e+003 5.62723550649836e+003
2.16000000000000e+003 -6.25353858107566e+006 -1.79461376187821e+006 2.38153289950920e+006 3.26476673146588e+003 -4.12033991807159e+003 5.46787575159277e+003
2.22000000000000e+003 -6.04430595327850e+006 -2.03778582163688e+006 2.70423312217471e+006 3.70714607101317e+003 -3.98248044262444e+003 5.28493004858932e+003
2.28000000000000e+003 -5.80900091766190e+006 -2.27216779310401e+006 3.01526850369135e+006 4.13353445560932e+003 -3.82744234401762e+003 5.07918754267927e+003
2.34000000000000e+003 -5.54863847394591e+006 -2.49674865824165e+006 3.31329737780729e+006 4.54209263821116e+003 -3.65589438663297e+003 4.85153571417241e+003
2.40000000000000e+003 -5.26434170819963e+006 -2.71055967656090e+006 3.59703418247324e+006 4.93105828321934e+003 -3.46857655093145e+003 4.60295655030756e+003
2.46000000000000e+003 -4.95733694835475e+006 -2.91267856383110e+006 3.86525500517684e+006 5.29875356839873e+003 -3.26629684151144e+003 4.33452230940285e+003
2.52000000000000e+003 -4.62894847438041e+006 -3.10223347039778e+006 4.11680286234889e+006 5.64359242224622e+003 -3.04992780174158e+003 4.04739089561728e+003
2.58000000000000e+003 -4.28059280593707e+006 -3.27840674194854e+006 4.35059269006824e+006 5.96408736558737e+003 -2.82040275000251e+003 3.74280086427480e+003
2.64000000000000e+003 -3.91377259215004e+006 -3.44043844650469e+006 4.56561602453782e+006 6.25885592789017e+003 -2.57871175377262e+003 3.42206607929564e+003
2.70000000000000e+003 -3.53007012985940e+006 -3.58762965242489e+006 4.76094535214228e+006 6.52662661061895e+003 -2.32589735892379e+003 3.08657004578040e+003
2.76000000000000e+003 -3.13114053830555e+006 -3.71934544328069e+006 4.93573811032310e+006 6.76624437190519e+003 -2.06305009264905e+003 2.73775994219343e+003
2.82000000000000e+003 -2.71870461969186e+006 -3.83501765659951e+006 5.08924032201322e+006 6.97667560887681e+003 -1.79130375942051e+003 2.37714037788816e+003
2.88000000000000e+003 -2.29454143642063e+006 -3.93414733466109e+006 5.22078984795374e+006 7.15701261615444e+003 -1.51183055026856e+003 2.00626690290142e+003
2.94000000000000e+003 -1.86048063702087e+006 -4.01630687677589e+006 5.32981924286389e+006 7.30647750128278e+003 -1.22583598647884e+003 1.62673929801269e+003
3.00000000000000e+003 -1.41839456387031e+006 -4.08114188376146e+006 5.41585820314381e+006 7.42442554020751e+003 -9.34553719517522e+002 1.24019467401182e+003
3.06000000000000e+003 -9.70190176755507e+005 -4.12837268666058e+006 5.47853559555207e+006 7.51034795832387e+003 -6.39240209615697e+002 8.48300409942055e+002
3.12000000000000e+003 -5.17800827107979e+005 -4.15779555310690e+006 5.51758105810688e+006 7.56387412510070e+003 -3.41169305967008e+002 4.52746960779346e+002
3.18000000000000e+003 -6.31779183987565e+004 -4.16928356613440e+006 5.53282616630574e+006 7.58477315281327e+003 -4.16267519171984e+001 5.52405655725943e+001
3.24000000000000e+003 3.91717511335447e+005 -4.16278717163994e+006 5.52420515963266e+006 7.57295489248867e+003 2.58095361152387e+002 -3.42504112501526e+002
3.30000000000000e+003 8.44923248525213e+005 -4.13833439213726e+006 5.49175522521940e+006 7.52847032276784e+003 5.56704167323829e+002 -7.38771382421591e+002
3.36000000000000e+003 1.29448436817212e+006 -4.09603070588051e+006 5.43561633743692e+006 7.45151133000670e+003 8.52911602982684e+002 -1.13185192603813e+003
3.42000000000000e+003 1.73846166651288e+006 -4.03605859187866e+006 5.35603065410914e+006 7.34240988056501e+003 1.14543996294306e+003 -1.52005017130066e+003
3.48000000000000e+003 2.17494002586904e+006 -3.95867674276346e+006 5.25334147195340e+006 7.20163658885336e+003 1.43302741189108e+003 -1.90169160619016e+003
3.54000000000000e+003 2.60203667560037e+006 -3.86421894890613e+006 5.12799174575334e+006 7.02979868731497e+003 1.71443342737295e+003 -2.27513000180820e+003
END Ephemeris
